{"type": "FeatureCollection", "features": [{"type": "Feature", "properties": {"norad_id": 22675, "name": "COSMOS 2251", "group": "cosmos-2251-debris", "lat": 74.00129553119511, "lon": 55.33167451328289, "alt_km": 761.696523934007, "timestamp": "2025-12-09T11:33:55.193479+00:00", "meta": {"OBJECT_NAME": "COSMOS 2251", "OBJECT_ID": "1993-036A", "EPOCH": "2025-12-09T02:46:05.491776", "MEAN_MOTION": 14.33202918, "ECCENTRICITY": 0.0023859, "INCLINATION": 74.0393, "RA_OF_ASC_NODE": 322.5062, "ARG_OF_PERICENTER": 45.897, "MEAN_ANOMALY": 314.4139, "EPHEMERIS_TYPE": 0, "CLASSIFICATION_TYPE": "U", "NORAD_CAT_ID": 22675, "ELEMENT_SET_NO": 999, "REV_AT_EPOCH": 69721, "BSTAR": 8.1568e-05, "MEAN_MOTION_DOT": 1.99e-06, "MEAN_MOTION_DDOT": 0}, "tle": {"line1": "1 22675U 93036A   25343.11534134  .00000199  00000+0  81568-4 0  9992", "line2": "2 22675  74.0393 322.5062 0023859  45.8970 314.4139 14.33202918697213"}}, "geometry": {"type": "Point", "coordinates": [55.33167451328289, 74.00129553119511]}}, {"type": "Feature", "properties": {"norad_id": 33757, "name": "COSMOS 2251 DEB", "group": "cosmos-2251-debris", "lat": 40.93098519079727, "lon": 135.1857676376486, "alt_km": 789.2001327270091, "timestamp": "2025-12-09T11:33:55.193504+00:00", "meta": {"OBJECT_NAME": "COSMOS 2251 DEB", "OBJECT_ID": "1993-036E", "EPOCH": "2025-12-09T02:53:29.291424", "MEAN_MOTION": 14.32579393, "ECCENTRICITY": 0.0015118, "INCLINATION": 74.0366, "RA_OF_ASC_NODE": 330.2174, "ARG_OF_PERICENTER": 344.1757, "MEAN_ANOMALY": 89.5585, "EPHEMERIS_TYPE": 0, "CLASSIFICATION_TYPE": "U", "NORAD_CAT_ID": 33757, "ELEMENT_SET_NO": 999, "REV_AT_EPOCH": 87944, "BSTAR": 6.6342e-05, "MEAN_MOTION_DOT": 1.54e-06, "MEAN_MOTION_DDOT": 0}, "tle": {"line1": "1 33757U 93036E   25343.12047791  .00000154  00000+0  66342-4 0  9998", "line2": "2 33757  74.0366 330.2174 0015118 344.1757  89.5585 14.32579393879448"}}, "geometry": {"type": "Point", "coordinates": [135.1857676376486, 40.93098519079727]}}, {"type": "Feature", "properties": {"norad_id": 33758, "name": "COSMOS 2251 DEB", "group": "cosmos-2251-debris", "lat": -37.8035680859183, "lon": 54.00416607078728, "alt_km": 722.0576365889638, "timestamp": "2025-12-09T11:33:55.193519+00:00", "meta": {"OBJECT_NAME": "COSMOS 2251 DEB", "OBJECT_ID": "1993-036F", "EPOCH": "2025-12-09T02:52:00.462720", "MEAN_MOTION": 14.51558355, "ECCENTRICITY": 0.0017496, "INCLINATION": 74.0276, "RA_OF_ASC_NODE": 221.8487, "ARG_OF_PERICENTER": 288.8994, "MEAN_ANOMALY": 197.6106, "EPHEMERIS_TYPE": 0, "CLASSIFICATION_TYPE": "U", "NORAD_CAT_ID": 33758, "ELEMENT_SET_NO": 999, "REV_AT_EPOCH": 88252, "BSTAR": 0.00097675, "MEAN_MOTION_DOT": 3.891e-05, "MEAN_MOTION_DDOT": 0}, "tle": {"line1": "1 33758U 93036F   25343.11944980  .00003891  00000+0  97675-3 0  9997", "line2": "2 33758  74.0276 221.8487 0017496 288.8994 197.6106 14.51558355882528"}}, "geometry": {"type": "Point", "coordinates": [54.00416607078728, -37.8035680859183]}}, {"type": "Feature", "properties": {"norad_id": 33760, "name": "COSMOS 2251 DEB", "group": "cosmos-2251-debris", "lat": -11.841973986400157, "lon": -76.00661870180326, "alt_km": 765.8759582138682, "timestamp": "2025-12-09T11:33:55.193532+00:00", "meta": {"OBJECT_NAME": "COSMOS 2251 DEB", "OBJECT_ID": "1993-036H", "EPOCH": "2025-12-09T03:46:22.455840", "MEAN_MOTION": 14.35668568, "ECCENTRICITY": 0.0019718, "INCLINATION": 74.0319, "RA_OF_ASC_NODE": 288.0309, "ARG_OF_PERICENTER": 27.3739, "MEAN_ANOMALY": 83.1306, "EPHEMERIS_TYPE": 0, "CLASSIFICATION_TYPE": "U", "NORAD_CAT_ID": 33760, "ELEMENT_SET_NO": 999, "REV_AT_EPOCH": 88073, "BSTAR": 0.00017971, "MEAN_MOTION_DOT": 4.94e-06, "MEAN_MOTION_DDOT": 0}, "tle": {"line1": "1 33760U 93036H   25343.15720435  .00000494  00000+0  17971-3 0  9998", "line2": "2 33760  74.0319 288.0309 0019718  27.3739  83.1306 14.35668568880731"}}, "geometry": {"type": "Point", "coordinates": [-76.00661870180326, -11.841973986400157]}}, {"type": "Feature", "properties": {"norad_id": 33761, "name": "COSMOS 2251 DEB", "group": "cosmos-2251-debris", "lat": -15.570782575829854, "lon": 82.78254970037938, "alt_km": 767.5427800908219, "timestamp": "2025-12-09T11:33:55.193543+00:00", "meta": {"OBJECT_NAME": "COSMOS 2251 DEB", "OBJECT_ID": "1993-036J", "EPOCH": "2025-12-08T19:59:05.455392", "MEAN_MOTION": 14.42527641, "ECCENTRICITY": 0.00229259, "INCLINATION": 74.0372, "RA_OF_ASC_NODE": 259.4117, "ARG_OF_PERICENTER": 340.1852, "MEAN_ANOMALY": 86.1409, "EPHEMERIS_TYPE": 0, "CLASSIFICATION_TYPE": "U", "NORAD_CAT_ID": 33761, "ELEMENT_SET_NO": 999, "REV_AT_EPOCH": 88178, "BSTAR": 0.00092875648, "MEAN_MOTION_DOT": 3.064e-05, "MEAN_MOTION_DDOT": 0}, "tle": {"line1": "1 33761U 93036J   25342.83270203  .00003064  00000+0  92876-3 0  9999", "line2": "2 33761  74.0372 259.4117 0022925 340.1852  86.1409 14.42527641881783"}}, "geometry": {"type": "Point", "coordinates": [82.78254970037938, -15.570782575829854]}}, {"type": "Feature", "properties": {"norad_id": 33762, "name": "COSMOS 2251 DEB", "group": "cosmos-2251-debris", "lat": -48.18034813198391, "lon": -62.66866267081636, "alt_km": 782.1949321601587, "timestamp": "2025-12-09T11:33:55.193555+00:00", "meta": {"OBJECT_NAME": "COSMOS 2251 DEB", "OBJECT_ID": "1993-036K", "EPOCH": "2025-12-09T02:05:51.341856", "MEAN_MOTION": 14.33661809, "ECCENTRICITY": 0.0014854, "INCLINATION": 74.0414, "RA_OF_ASC_NODE": 316.7042, "ARG_OF_PERICENTER": 19.211, "MEAN_ANOMALY": 54.9944, "EPHEMERIS_TYPE": 0, "CLASSIFICATION_TYPE": "U", "NORAD_CAT_ID": 33762, "ELEMENT_SET_NO": 999, "REV_AT_EPOCH": 87995, "BSTAR": 8.0265e-05, "MEAN_MOTION_DOT": 1.97e-06, "MEAN_MOTION_DDOT": 0}, "tle": {"line1": "1 33762U 93036K   25343.08739979  .00000197  00000+0  80265-4 0  9992", "line2": "2 33762  74.0414 316.7042 0014854  19.2110  54.9944 14.33661809879956"}}, "geometry": {"type": "Point", "coordinates": [-62.66866267081636, -48.18034813198391]}}, {"type": "Feature", "properties": {"norad_id": 33764, "name": "COSMOS 2251 DEB", "group": "cosmos-2251-debris", "lat": 19.987497007704444, "lon": -75.35010930508297, "alt_km": 772.195745459835, "timestamp": "2025-12-09T11:33:55.193566+00:00", "meta": {"OBJECT_NAME": "COSMOS 2251 DEB", "OBJECT_ID": "1993-036M", "EPOCH": "2025-12-09T03:11:07.109088", "MEAN_MOTION": 14.39497639, "ECCENTRICITY": 0.0024092, "INCLINATION": 74.0345, "RA_OF_ASC_NODE": 279.3175, "ARG_OF_PERICENTER": 245.7111, "MEAN_ANOMALY": 126.3033, "EPHEMERIS_TYPE": 0, "CLASSIFICATION_TYPE": "U", "NORAD_CAT_ID": 33764, "ELEMENT_SET_NO": 999, "REV_AT_EPOCH": 88105, "BSTAR": 0.00050945, "MEAN_MOTION_DOT": 1.567e-05, "MEAN_MOTION_DDOT": 0}, "tle": {"line1": "1 33764U 93036M   25343.13272117  .00001567  00000+0  50945-3 0  9999", "line2": "2 33764  74.0345 279.3175 0024092 245.7111 126.3033 14.39497639881055"}}, "geometry": {"type": "Point", "coordinates": [-75.35010930508297, 19.987497007704444]}}, {"type": "Feature", "properties": {"norad_id": 33765, "name": "COSMOS 2251 DEB", "group": "cosmos-2251-debris", "lat": 67.95636127142001, "lon": -45.24852168528192, "alt_km": 574.9007952290631, "timestamp": "2025-12-09T11:33:55.193576+00:00", "meta": {"OBJECT_NAME": "COSMOS 2251 DEB", "OBJECT_ID": "1993-036N", "EPOCH": "2025-12-09T00:39:09.660960", "MEAN_MOTION": 15.09638383, "ECCENTRICITY": 0.0066275, "INCLINATION": 74.0093, "RA_OF_ASC_NODE": 180.7811, "ARG_OF_PERICENTER": 273.6216, "MEAN_ANOMALY": 241.793, "EPHEMERIS_TYPE": 0, "CLASSIFICATION_TYPE": "U", "NORAD_CAT_ID": 33765, "ELEMENT_SET_NO": 999, "REV_AT_EPOCH": 89562, "BSTAR": 0.0022369, "MEAN_MOTION_DOT": 0.00038062, "MEAN_MOTION_DDOT": 0}, "tle": {"line1": "1 33765U 93036N   25343.02719515  .00038062  00000+0  22369-2 0  9994", "line2": "2 33765  74.0093 180.7811 0066275 273.6216 241.7930 15.09638383895620"}}, "geometry": {"type": "Point", "coordinates": [-45.24852168528192, 67.95636127142001]}}, {"type": "Feature", "properties": {"norad_id": 33766, "name": "COSMOS 2251 DEB", "group": "cosmos-2251-debris", "lat": 59.475531407429465, "lon": -67.83552153285054, "alt_km": 799.2095074755889, "timestamp": "2025-12-09T11:33:55.193587+00:00", "meta": {"OBJECT_NAME": "COSMOS 2251 DEB", "OBJECT_ID": "1993-036P", "EPOCH": "2025-12-08T21:38:26.204352", "MEAN_MOTION": 14.34915811, "ECCENTRICITY": 0.0063955, "INCLINATION": 74.1855, "RA_OF_ASC_NODE": 141.9485, "ARG_OF_PERICENTER": 346.4117, "MEAN_ANOMALY": 13.5311, "EPHEMERIS_TYPE": 0, "CLASSIFICATION_TYPE": "U", "NORAD_CAT_ID": 33766, "ELEMENT_SET_NO": 999, "REV_AT_EPOCH": 87690, "BSTAR": 0.0006455, "MEAN_MOTION_DOT": 1.853e-05, "MEAN_MOTION_DDOT": 0}, "tle": {"line1": "1 33766U 93036P   25342.90169218  .00001853  00000+0  64550-3 0  9997", "line2": "2 33766  74.1855 141.9485 0063955 346.4117  13.5311 14.34915811876904"}}, "geometry": {"type": "Point", "coordinates": [-67.83552153285054, 59.475531407429465]}}, {"type": "Feature", "properties": {"norad_id": 33768, "name": "COSMOS 2251 DEB", "group": "cosmos-2251-debris", "lat": -36.811531259445054, "lon": 57.468111225858614, "alt_km": 1309.1909873990962, "timestamp": "2025-12-09T11:33:55.193598+00:00", "meta": {"OBJECT_NAME": "COSMOS 2251 DEB", "OBJECT_ID": "1993-036R", "EPOCH": "2025-12-09T03:59:03.993216", "MEAN_MOTION": 13.58449963, "ECCENTRICITY": 0.0366146, "INCLINATION": 74.0686, "RA_OF_ASC_NODE": 225.6348, "ARG_OF_PERICENTER": 24.1597, "MEAN_ANOMALY": 91.2427, "EPHEMERIS_TYPE": 0, "CLASSIFICATION_TYPE": "U", "NORAD_CAT_ID": 33768, "ELEMENT_SET_NO": 999, "REV_AT_EPOCH": 83247, "BSTAR": 0.00050184, "MEAN_MOTION_DOT": 5.46e-06, "MEAN_MOTION_DDOT": 0}, "tle": {"line1": "1 33768U 93036R   25343.16601844  .00000546  00000+0  50184-3 0  9990", "line2": "2 33768  74.0686 225.6348 0366146  24.1597  91.2427 13.58449963832475"}}, "geometry": {"type": "Point", "coordinates": [57.468111225858614, -36.811531259445054]}}]}